[Satellite]
VERSION=1.1
NAME=ORBCOMM FM38 [-]
NICKNAME=ORBCOMM FM38 [-]
TLE1=1 33060U 08031A   17185.85831592 -.00000055  00000-0  22577-4 0  9995
TLE2=2 33060  48.4447 336.3943 0006675 259.9380 100.0779 14.73295297486041
